start=new Date('2021-11-09T00:00:00.000Z').valueOf();
sats=[{"TLE_LINE1":"1 47866U 21021G   21312.87442921  .00000228  00000-0  34191-4 0  9997","LAUNCH_DATE":"2021-03-14","ELEMENT_SET_NO":"999","CLASSIFICATION_TYPE":"U","MEAN_ANOMALY":"292.5942","MEAN_MOTION_DOT":"0.00000228","FILE":"3209620","ECCENTRICITY":"0.00016560","SITE":"AFETR","BSTAR":"0.00003419100000","OBJECT_TYPE":"PAYLOAD","DECAY_DATE":null,"EPHEMERIS_TYPE":"0","INCLINATION":"53.0551","APOAPSIS":"548.373","TIME_SYSTEM":"UTC","EPOCH":"2021-11-08T20:59:10.683744","NORAD_CAT_ID":"47866","COUNTRY_CODE":"US","PERIAPSIS":"546.079","RA_OF_ASC_NODE":"172.6561","RCS_SIZE":"LARGE","TLE_LINE2":"2 47866  53.0551 172.6561 0001656  67.5222 292.5942 15.06395966 37937","OBJECT_NAME":"STARLINK-2320","PERIOD":"95.592","MEAN_MOTION":"15.06395966","ARG_OF_PERICENTER":"67.5222","REV_AT_EPOCH":"3793","GP_ID":"189302435","MEAN_ELEMENT_THEORY":"SGP4","CENTER_NAME":"EARTH","MEAN_MOTION_DDOT":"0.0000000000000","OBJECT_ID":"2021-021G","SEMIMAJOR_AXIS":"6925.361","REF_FRAME":"TEME"},{"ECCENTRICITY":"0.00017460","FILE":"3209620","MEAN_MOTION_DOT":"-0.00000140","SITE":"AFETR","BSTAR":"0.00000951840000","OBJECT_TYPE":"PAYLOAD","DECAY_DATE":null,"LAUNCH_DATE":"2021-03-14","TLE_LINE1":"1 47867U 21021H   21312.86798625 -.00000140  00000-0  95184-5 0  9996","ELEMENT_SET_NO":"999","CLASSIFICATION_TYPE":"U","MEAN_ANOMALY":"296.9641","ARG_OF_PERICENTER":"63.1527","MEAN_MOTION":"15.06387632","REV_AT_EPOCH":"3787","OBJECT_ID":"2021-021H","MEAN_MOTION_DDOT":"0.0000000000000","CENTER_NAME":"EARTH","MEAN_ELEMENT_THEORY":"SGP4","GP_ID":"189303187","SEMIMAJOR_AXIS":"6925.386","REF_FRAME":"TEME","APOAPSIS":"548.461","INCLINATION":"53.0524","EPHEMERIS_TYPE":"0","PERIAPSIS":"546.042","COUNTRY_CODE":"US","TIME_SYSTEM":"UTC","EPOCH":"2021-11-08T20:49:54.012000","NORAD_CAT_ID":"47867","RCS_SIZE":"LARGE","RA_OF_ASC_NODE":"162.6794","PERIOD":"95.593","OBJECT_NAME":"STARLINK-2321","TLE_LINE2":"2 47867  53.0524 162.6794 0001746  63.1527 296.9641 15.06387632 37873"},{"CLASSIFICATION_TYPE":"U","MEAN_ANOMALY":"339.2622","LAUNCH_DATE":"2021-03-14","TLE_LINE1":"1 47868U 21021J   21312.83901614 -.00293758  00000-0 -12413-1 0  9998","ELEMENT_SET_NO":"999","OBJECT_TYPE":"PAYLOAD","DECAY_DATE":null,"ECCENTRICITY":"0.00037900","FILE":"3209620","MEAN_MOTION_DOT":"-0.00293758","BSTAR":"-0.01241300000000","SITE":"AFETR","RCS_SIZE":"LARGE","RA_OF_ASC_NODE":"113.2606","PERIOD":"94.484","OBJECT_NAME":"STARLINK-2323","TLE_LINE2":"2 47868  53.0446 113.2606 0003790  20.8528 339.2622 15.24067235 38610","APOAPSIS":"496.194","INCLINATION":"53.0446","EPHEMERIS_TYPE":"0","PERIAPSIS":"490.985","COUNTRY_CODE":"US","NORAD_CAT_ID":"47868","TIME_SYSTEM":"UTC","EPOCH":"2021-11-08T20:08:10.994496","SEMIMAJOR_AXIS":"6871.725","REF_FRAME":"TEME","MEAN_MOTION":"15.24067235","ARG_OF_PERICENTER":"20.8528","REV_AT_EPOCH":"3861","OBJECT_ID":"2021-021J","CENTER_NAME":"EARTH","MEAN_MOTION_DDOT":"0.0000000000000","GP_ID":"189303937","MEAN_ELEMENT_THEORY":"SGP4"},{"BSTAR":"-0.00006551200000","SITE":"AFETR","MEAN_MOTION_DOT":"-0.00001257","FILE":"3209620","ECCENTRICITY":"0.00015490","DECAY_DATE":null,"OBJECT_TYPE":"PAYLOAD","ELEMENT_SET_NO":"999","TLE_LINE1":"1 47869U 21021K   21312.86429153 -.00001257  00000-0 -65512-4 0  9997","LAUNCH_DATE":"2021-03-14","MEAN_ANOMALY":"288.6998","CLASSIFICATION_TYPE":"U","GP_ID":"189302685","MEAN_ELEMENT_THEORY":"SGP4","MEAN_MOTION_DDOT":"0.0000000000000","CENTER_NAME":"EARTH","OBJECT_ID":"2021-021K","MEAN_MOTION":"15.06382077","REV_AT_EPOCH":"3802","ARG_OF_PERICENTER":"71.4159","REF_FRAME":"TEME","SEMIMAJOR_AXIS":"6925.403","TIME_SYSTEM":"UTC","NORAD_CAT_ID":"47869","EPOCH":"2021-11-08T20:44:34.788192","COUNTRY_CODE":"US","PERIAPSIS":"546.196","EPHEMERIS_TYPE":"0","INCLINATION":"53.0557","APOAPSIS":"548.341","TLE_LINE2":"2 47869  53.0557 162.7081 0001549  71.4159 288.6998 15.06382077 38024","OBJECT_NAME":"STARLINK-2324","PERIOD":"95.593","RA_OF_ASC_NODE":"162.7081","RCS_SIZE":"LARGE"},{"OBJECT_ID":"2021-021L","CENTER_NAME":"EARTH","MEAN_MOTION_DDOT":"0.0000000000000","GP_ID":"189302935","MEAN_ELEMENT_THEORY":"SGP4","REV_AT_EPOCH":"3747","MEAN_MOTION":"15.06379040","ARG_OF_PERICENTER":"65.6612","REF_FRAME":"TEME","SEMIMAJOR_AXIS":"6925.413","COUNTRY_CODE":"US","PERIAPSIS":"546.326","TIME_SYSTEM":"UTC","NORAD_CAT_ID":"47870","EPOCH":"2021-11-08T22:46:02.137440","APOAPSIS":"548.230","INCLINATION":"53.0437","EPHEMERIS_TYPE":"0","PERIOD":"95.593","OBJECT_NAME":"STARLINK-2326","TLE_LINE2":"2 47870  53.0437 187.4141 0001375  65.6612 294.4520 15.06379040 37470","RCS_SIZE":"MEDIUM","RA_OF_ASC_NODE":"187.4141","BSTAR":"0.00014608000000","SITE":"AFETR","FILE":"3209620","ECCENTRICITY":"0.00013750","MEAN_MOTION_DOT":"0.00001894","DECAY_DATE":null,"OBJECT_TYPE":"PAYLOAD","ELEMENT_SET_NO":"999","LAUNCH_DATE":"2021-03-14","TLE_LINE1":"1 47870U 21021L   21312.94863585  .00001894  00000-0  14608-3 0  9993","MEAN_ANOMALY":"294.4520","CLASSIFICATION_TYPE":"U"},{"EPHEMERIS_TYPE":"0","INCLINATION":"53.0555","APOAPSIS":"548.315","NORAD_CAT_ID":"47871","TIME_SYSTEM":"UTC","EPOCH":"2021-11-08T20:39:16.139808","COUNTRY_CODE":"US","PERIAPSIS":"546.135","RA_OF_ASC_NODE":"162.7242","RCS_SIZE":"LARGE","TLE_LINE2":"2 47871  53.0555 162.7242 0001574  86.5842 273.5327 15.06396239 37919","OBJECT_NAME":"STARLINK-2327","PERIOD":"95.592","ARG_OF_PERICENTER":"86.5842","REV_AT_EPOCH":"3791","MEAN_MOTION":"15.06396239","MEAN_ELEMENT_THEORY":"SGP4","GP_ID":"189303687","CENTER_NAME":"EARTH","MEAN_MOTION_DDOT":"0.0000000000000","OBJECT_ID":"2021-021M","SEMIMAJOR_AXIS":"6925.360","REF_FRAME":"TEME","TLE_LINE1":"1 47871U 21021M   21312.86060347 -.00000238  00000-0  29387-5 0  9994","LAUNCH_DATE":"2021-03-14","ELEMENT_SET_NO":"999","CLASSIFICATION_TYPE":"U","MEAN_ANOMALY":"273.5327","MEAN_MOTION_DOT":"-0.00000238","ECCENTRICITY":"0.00015740","FILE":"3209620","BSTAR":"0.00000293870000","SITE":"AFETR","OBJECT_TYPE":"PAYLOAD","DECAY_DATE":null},{"OBJECT_TYPE":"PAYLOAD","DECAY_DATE":null,"MEAN_MOTION_DOT":"0.00000291","FILE":"3209238","ECCENTRICITY":"0.00014990","SITE":"AFETR","BSTAR":"0.00003883300000","CLASSIFICATION_TYPE":"U","MEAN_ANOMALY":"211.2518","TLE_LINE1":"1 47872U 21021N   21312.52238085  .00000291  00000-0  38833-4 0  9997","LAUNCH_DATE":"2021-03-14","ELEMENT_SET_NO":"999","SEMIMAJOR_AXIS":"6926.846","REF_FRAME":"TEME","ARG_OF_PERICENTER":"148.8560","MEAN_MOTION":"15.05911694","REV_AT_EPOCH":"3843","GP_ID":"189270949","MEAN_ELEMENT_THEORY":"SGP4","CENTER_NAME":"EARTH","MEAN_MOTION_DDOT":"0.0000000000000","OBJECT_ID":"2021-021N","RA_OF_ASC_NODE":"124.1303","RCS_SIZE":"LARGE","TLE_LINE2":"2 47872  53.0672 124.1303 0001499 148.8560 211.2518 15.05911694 38431","OBJECT_NAME":"STARLINK-2328","PERIOD":"95.623","EPHEMERIS_TYPE":"0","INCLINATION":"53.0672","APOAPSIS":"549.749","TIME_SYSTEM":"UTC","EPOCH":"2021-11-08T12:32:13.705440","NORAD_CAT_ID":"47872","PERIAPSIS":"547.672","COUNTRY_CODE":"US"},{"MEAN_ANOMALY":"291.3210","CLASSIFICATION_TYPE":"U","ELEMENT_SET_NO":"999","LAUNCH_DATE":"2021-03-14","TLE_LINE1":"1 47873U 21021P   21312.84218597  .00003289  00000-0  23961-3 0  9994","DECAY_DATE":null,"OBJECT_TYPE":"PAYLOAD","BSTAR":"0.00023961000000","SITE":"AFETR","ECCENTRICITY":"0.00016530","FILE":"3209620","MEAN_MOTION_DOT":"0.00003289","OBJECT_NAME":"STARLINK-2329","PERIOD":"95.593","TLE_LINE2":"2 47873  53.0499 162.8085 0001653  68.7955 291.3210 15.06392954 37907","RCS_SIZE":"LARGE","RA_OF_ASC_NODE":"162.8085","COUNTRY_CODE":"US","PERIAPSIS":"546.090","TIME_SYSTEM":"UTC","NORAD_CAT_ID":"47873","EPOCH":"2021-11-08T20:12:44.867808","INCLINATION":"53.0499","EPHEMERIS_TYPE":"0","APOAPSIS":"548.380","REF_FRAME":"TEME","SEMIMAJOR_AXIS":"6925.370","OBJECT_ID":"2021-021P","MEAN_ELEMENT_THEORY":"SGP4","GP_ID":"189302186","MEAN_MOTION_DDOT":"0.0000000000000","CENTER_NAME":"EARTH","REV_AT_EPOCH":"3790","MEAN_MOTION":"15.06392954","ARG_OF_PERICENTER":"68.7955"},{"TLE_LINE2":"2 47874  53.0464 118.9894 0001458 105.8166 254.2984 15.06375549 38504","OBJECT_NAME":"STARLINK-2330","PERIOD":"95.594","RA_OF_ASC_NODE":"118.9894","RCS_SIZE":"LARGE","TIME_SYSTEM":"UTC","EPOCH":"2021-11-08T14:03:10.423584","NORAD_CAT_ID":"47874","COUNTRY_CODE":"US","PERIAPSIS":"546.279","INCLINATION":"53.0464","EPHEMERIS_TYPE":"0","APOAPSIS":"548.298","REF_FRAME":"TEME","SEMIMAJOR_AXIS":"6925.423","GP_ID":"189302436","MEAN_ELEMENT_THEORY":"SGP4","CENTER_NAME":"EARTH","MEAN_MOTION_DDOT":"0.0000000000000","OBJECT_ID":"2021-021Q","MEAN_MOTION":"15.06375549","REV_AT_EPOCH":"3850","ARG_OF_PERICENTER":"105.8166","MEAN_ANOMALY":"254.2984","CLASSIFICATION_TYPE":"U","ELEMENT_SET_NO":"999","TLE_LINE1":"1 47874U 21021Q   21312.58553731  .00001372  00000-0  11104-3 0  9995","LAUNCH_DATE":"2021-03-14","DECAY_DATE":null,"OBJECT_TYPE":"PAYLOAD","BSTAR":"0.00011104000000","SITE":"AFETR","MEAN_MOTION_DOT":"0.00001372","FILE":"3209620","ECCENTRICITY":"0.00014580"},{"TLE_LINE2":"2 47875  53.0526 172.5361 0001271  77.5393 282.5738 15.06376869 37831","PERIOD":"95.594","OBJECT_NAME":"STARLINK-2331","RA_OF_ASC_NODE":"172.5361","RCS_SIZE":"LARGE","NORAD_CAT_ID":"47875","TIME_SYSTEM":"UTC","EPOCH":"2021-11-08T21:36:20.550240","PERIAPSIS":"546.404","COUNTRY_CODE":"US","APOAPSIS":"548.165","INCLINATION":"53.0526","EPHEMERIS_TYPE":"0","REF_FRAME":"TEME","SEMIMAJOR_AXIS":"6925.419","CENTER_NAME":"EARTH","MEAN_MOTION_DDOT":"0.0000000000000","MEAN_ELEMENT_THEORY":"SGP4","GP_ID":"189303188","OBJECT_ID":"2021-021R","MEAN_MOTION":"15.06376869","ARG_OF_PERICENTER":"77.5393","REV_AT_EPOCH":"3783","MEAN_ANOMALY":"282.5738","CLASSIFICATION_TYPE":"U","ELEMENT_SET_NO":"999","TLE_LINE1":"1 47875U 21021R   21312.90023785  .00002491  00000-0  18619-3 0  9994","LAUNCH_DATE":"2021-03-14","DECAY_DATE":null,"OBJECT_TYPE":"PAYLOAD","SITE":"AFETR","BSTAR":"0.00018619000000","MEAN_MOTION_DOT":"0.00002491","ECCENTRICITY":"0.00012710","FILE":"3209620"}];
